     3.03           N: GNSS NAV DATA    M: MIXED            RINEX VERSION / TYPE
GR30 V4.20          ASI-egeos           20210704 235942 UTC PGM / RUN BY / DATE
GAL    6.3500D+01  3.6328D-01  9.4299D-03                   IONOSPHERIC CORR
GPSA   7.4506D-09  2.2352D-08 -5.9605D-08 -1.1921D-07       IONOSPHERIC CORR
GPSB   9.2160D+04  1.3107D+05 -6.5536D+04 -5.2429D+05       IONOSPHERIC CORR
BDSA   9.3132D-09  4.4703D-08 -4.1723D-07  6.5565D-07 M 02  IONOSPHERIC CORR
BDSA   9.3132D-09  3.7253D-08 -3.5763D-07  5.9605D-07 W 05  IONOSPHERIC CORR
BDSA   9.3132D-09  3.7253D-08 -3.5763D-07  5.9605D-07 Q 06  IONOSPHERIC CORR
BDSA   9.3132D-09  3.7253D-08 -3.5763D-07  5.9605D-07 W 07  IONOSPHERIC CORR
BDSA   9.3132D-09  3.7253D-08 -3.5763D-07  5.9605D-07 I 08  IONOSPHERIC CORR
BDSA   9.3132D-09  3.7253D-08 -3.5763D-07  5.9605D-07 U 09  IONOSPHERIC CORR
BDSA   9.3132D-09  3.7253D-08 -3.5763D-07  5.9605D-07 W 10  IONOSPHERIC CORR
BDSA   8.3819D-09  3.7253D-08 -3.5763D-07  5.9605D-07 K 11  IONOSPHERIC CORR
BDSA   8.3819D-09  3.7253D-08 -3.5763D-07  5.9605D-07 T 12  IONOSPHERIC CORR
BDSA   8.3819D-09  3.7253D-08 -3.5763D-07  5.9605D-07 K 13  IONOSPHERIC CORR
BDSA   8.3819D-09  3.7253D-08 -3.5763D-07  5.3644D-07 M 14  IONOSPHERIC CORR
BDSA   9.3132D-09  3.7253D-08 -3.5763D-07  5.9605D-07 Q 16  IONOSPHERIC CORR
BDSA   9.3132D-09  3.7253D-08 -3.5763D-07  5.9605D-07 W 19  IONOSPHERIC CORR
BDSA   9.3132D-09  3.7253D-08 -3.5763D-07  5.9605D-07 U 20  IONOSPHERIC CORR
BDSA   9.3132D-09  3.7253D-08 -3.5763D-07  5.9605D-07 W 21  IONOSPHERIC CORR
BDSA   9.3132D-09  3.7253D-08 -3.5763D-07  5.9605D-07 W 22  IONOSPHERIC CORR
BDSA   9.3132D-09  3.7253D-08 -3.5763D-07  5.9605D-07 S 23  IONOSPHERIC CORR
BDSA   9.3132D-09  3.7253D-08 -3.5763D-07  5.3644D-07 G 24  IONOSPHERIC CORR
BDSA   9.3132D-09  3.7253D-08 -3.5763D-07  5.9605D-07 I 25  IONOSPHERIC CORR
BDSA   9.3132D-09  3.7253D-08 -3.5763D-07  5.9605D-07 X 26  IONOSPHERIC CORR
BDSA   9.3132D-09  3.7253D-08 -3.5763D-07  5.9605D-07 Q 27  IONOSPHERIC CORR
BDSA   8.3819D-09  3.7253D-08 -3.5763D-07  5.9605D-07 O 28  IONOSPHERIC CORR
BDSA   9.3132D-09  3.7253D-08 -3.5763D-07  5.9605D-07 S 29  IONOSPHERIC CORR
BDSA   9.3132D-09  3.7253D-08 -3.5763D-07  5.9605D-07 S 30  IONOSPHERIC CORR
BDSB   1.1059D+05  3.7683D+05 -1.5729D+06  1.1141D+06 M 02  IONOSPHERIC CORR
BDSB   1.1264D+05  3.7683D+05 -1.5729D+06  1.1141D+06 W 05  IONOSPHERIC CORR
BDSB   1.1264D+05  3.2768D+05 -1.3763D+06  9.8304D+05 Q 06  IONOSPHERIC CORR
BDSB   1.1264D+05  3.7683D+05 -1.5729D+06  1.1141D+06 W 07  IONOSPHERIC CORR
BDSB   1.0854D+05  4.9152D+05 -2.1627D+06  1.5073D+06 I 08  IONOSPHERIC CORR
BDSB   1.1264D+05  3.6045D+05 -1.5073D+06  1.0486D+06 U 09  IONOSPHERIC CORR
BDSB   1.1264D+05  3.7683D+05 -1.5729D+06  1.1141D+06 W 10  IONOSPHERIC CORR
BDSB   1.1264D+05  4.5875D+05 -2.0972D+06  1.5073D+06 K 11  IONOSPHERIC CORR
BDSB   1.1264D+05  4.5875D+05 -2.0972D+06  1.5073D+06 T 12  IONOSPHERIC CORR
BDSB   1.1264D+05  4.5875D+05 -2.0972D+06  1.5073D+06 K 13  IONOSPHERIC CORR
BDSB   1.1264D+05  4.4237D+05 -2.0316D+06  1.4418D+06 M 14  IONOSPHERIC CORR
BDSB   1.1264D+05  3.2768D+05 -1.3763D+06  9.8304D+05 Q 16  IONOSPHERIC CORR
BDSB   1.1264D+05  3.7683D+05 -1.5729D+06  1.1141D+06 W 19  IONOSPHERIC CORR
BDSB   1.1264D+05  3.6045D+05 -1.5073D+06  1.0486D+06 U 20  IONOSPHERIC CORR
BDSB   1.1264D+05  3.7683D+05 -1.5729D+06  1.1141D+06 W 21  IONOSPHERIC CORR
BDSB   1.1264D+05  3.7683D+05 -1.5729D+06  1.1141D+06 W 22  IONOSPHERIC CORR
BDSB   1.1059D+05  3.6045D+05 -1.5073D+06  1.0486D+06 S 23  IONOSPHERIC CORR
BDSB   1.0854D+05  5.0790D+05 -2.2938D+06  1.5729D+06 G 24  IONOSPHERIC CORR
BDSB   1.0854D+05  4.9152D+05 -2.1627D+06  1.5073D+06 I 25  IONOSPHERIC CORR
BDSB   1.1264D+05  3.7683D+05 -1.5729D+06  1.1141D+06 X 26  IONOSPHERIC CORR
BDSB   1.1264D+05  3.2768D+05 -1.3763D+06  9.8304D+05 Q 27  IONOSPHERIC CORR
BDSB   1.1264D+05  3.6045D+05 -1.5729D+06  1.1141D+06 O 28  IONOSPHERIC CORR
BDSB   1.1059D+05  3.6045D+05 -1.5073D+06  1.0486D+06 S 29  IONOSPHERIC CORR
BDSB   1.1059D+05  3.6045D+05 -1.5073D+06  1.0486D+06 S 30  IONOSPHERIC CORR
GPUT  4.6566128731D-09 1.598721155D-14 233472 2165          TIME SYSTEM CORR
GLUT  2.3748725653D-08 0.000000000D+00      0    0          TIME SYSTEM CORR
GAUT  0.0000000000D+00 0.000000000D+00      0 2165          TIME SYSTEM CORR
GPGA  1.5425030142D-09-1.465494393D-14  86400 2165          TIME SYSTEM CORR
BDUT -3.7252902985D-09 0.000000000D+00  86345  809          TIME SYSTEM CORR
    18    18  1929     7                                    LEAP SECONDS
                                                            END OF HEADER
E05 2021 07 05 22 20 00-2.674906863831D-04 2.984279490192D-12 0.000000000000D+00
     2.200000000000D+01 2.312500000000D+00 3.781228931934D-09 1.974249976145D+00
     2.905726432800D-07 2.255955478176D-04 4.939734935760D-06 5.440616426468D+03
     1.668000000000D+05 1.434236764908D-07-2.285852559849D+00-3.539025783539D-08
     9.548693816396D-01 2.290000000000D+02-1.091047066970D+00-5.849529370663D-09
     1.085759511956D-10 2.580000000000D+02 2.165000000000D+03 0.000000000000D+00
     3.120000000000D+00 0.000000000000D+00 3.725290298462D-09 0.000000000000D+00
     1.675000000000D+05
R13 2021 07 05 22 45 00-5.727913230658D-05-0.000000000000D+00 1.678500000000D+05
     2.499263232422D+04-1.118488311768D-01 2.793967723846D-09 0.000000000000D+00
    -5.084046386719D+03-1.362323760986D-01-9.313225746155D-10-2.000000000000D+00
     5.788652343750D+02 3.565573692322D+00-1.862645149231D-09 0.000000000000D+00
E09 2021 07 05 22 30 00 5.610278109089D-03-1.277555838897D-11 0.000000000000D+00
     2.300000000000D+01 4.125000000000D+00 3.669438561131D-09 2.333087192961D+00
     2.644956111908D-07 4.141482058913D-04 5.045905709267D-06 5.440616752625D+03
     1.674000000000D+05-4.656612873077D-08-2.290476811713D+00 1.061707735062D-07
     9.608556219392D-01 2.324687500000D+02-6.029883227354D-01-5.723452690492D-09
     2.282237921513D-10 5.170000000000D+02 2.165000000000D+03 0.000000000000D+00
     3.120000000000D+00 0.000000000000D+00 1.629814505577D-09 1.862645149231D-09
     1.680640000000D+05
E04 2021 07 05 22 30 00-8.071396150626D-04-8.043343768804D-12 0.000000000000D+00
     2.300000000000D+01 8.875000000000D+00 3.689082236511D-09-2.450327558824D+00
     3.650784492493D-07 3.022734308615D-04 5.185604095459D-06 5.440613275528D+03
     1.674000000000D+05-3.725290298462D-08-2.285770067361D+00-7.450580596924D-09
     9.548998937220D-01 2.259687500000D+02-1.300445026630D+00-5.678807973718D-09
     1.900079145923D-10 5.130000000000D+02 2.165000000000D+03 0.000000000000D+00
     3.120000000000D+00 0.000000000000D+00-3.259629011154D-09-3.725290298462D-09
     1.680640000000D+05
E05 2021 07 05 22 30 00-2.674886491150D-04 3.012701199623D-12 0.000000000000D+00
     2.300000000000D+01 2.343750000000D+00 3.785514824744D-09 2.048566586152D+00
     2.924352884293D-07 2.255683066323D-04 4.969537258148D-06 5.440616487503D+03
     1.674000000000D+05 1.471489667892D-07-2.285856164479D+00-7.450580596924D-09
     9.548693670105D-01 2.287812500000D+02-1.090977983589D+00-5.850600843866D-09
     1.253623647028D-10 5.130000000000D+02 2.165000000000D+03 0.000000000000D+00
     3.120000000000D+00 0.000000000000D+00 3.725290298462D-09 4.190951585770D-09
     1.680640000000D+05
E31 2021 07 05 22 30 00-4.829352837987D-04-3.552713678801D-13 0.000000000000D+00
     2.300000000000D+01 1.460937500000D+02 2.549749064426D-09 2.234202788771D+00
     6.834045052528D-06 3.065977944061D-04 9.449198842049D-06 5.440620332718D+03
     1.674000000000D+05-3.725290298462D-09-1.901222526121D-01 4.656612873077D-08
     9.774032340022D-01 1.440312500000D+02-1.815884605831D+00-5.289863201178D-09
    -5.000208278745D-12 5.130000000000D+02 2.165000000000D+03 0.000000000000D+00
     3.120000000000D+00 0.000000000000D+00 4.423782229424D-09 5.122274160385D-09
     1.680640000000D+05
E36 2021 07 05 22 30 00-2.304281806573D-04-5.201172825764D-12 0.000000000000D+00
     2.300000000000D+01-1.332187500000D+02 2.489032249613D-09 2.304372204500D+00
    -6.178393959999D-06 1.526160631329D-04 4.993751645088D-06 5.440613880157D+03
     1.674000000000D+05-2.980232238770D-08 1.892778112389D+00 1.303851604462D-08
     9.951250894457D-01 2.525000000000D+02 7.653771361613D-01-5.410225357602D-09
    -7.428880871279D-11 5.170000000000D+02 2.165000000000D+03 0.000000000000D+00
     3.120000000000D+00 0.000000000000D+00 5.820766091347D-09 6.752088665962D-09
     1.680640000000D+05
E09 2021 07 05 22 30 00 5.610278516542D-03-1.277555838897D-11 0.000000000000D+00
     2.300000000000D+01 4.125000000000D+00 3.669438561131D-09 2.333087192961D+00
     2.644956111908D-07 4.141482058913D-04 5.045905709267D-06 5.440616752625D+03
     1.674000000000D+05-4.656612873077D-08-2.290476811713D+00 1.061707735062D-07
     9.608556219392D-01 2.324687500000D+02-6.029883227354D-01-5.723452690492D-09
     2.282237921513D-10 2.580000000000D+02 2.165000000000D+03 0.000000000000D+00
     3.120000000000D+00 0.000000000000D+00 1.629814505577D-09 0.000000000000D+00
     1.681000000000D+05
E31 2021 07 05 22 30 00-4.829352255911D-04-3.410605131648D-13 0.000000000000D+00
     2.300000000000D+01 1.460937500000D+02 2.549749064426D-09 2.234202788771D+00
     6.834045052528D-06 3.065977944061D-04 9.449198842049D-06 5.440620332718D+03
     1.674000000000D+05-3.725290298462D-09-1.901222526121D-01 4.656612873077D-08
     9.774032340022D-01 1.440312500000D+02-1.815884605831D+00-5.289863201178D-09
    -5.000208278745D-12 2.580000000000D+02 2.165000000000D+03 0.000000000000D+00
     3.120000000000D+00 0.000000000000D+00 4.423782229424D-09 0.000000000000D+00
     1.681000000000D+05
